1998-067XX              
1 66911U 98067XX  25365.31626460  .00111465  00000+0  16139-2 0  9991
2 66911  51.6316  49.8389 0003220 329.7775  30.3030 15.55019305  4495
1998-067XY              
1 66912U 98067XY  25365.14259225  .00081525  00000+0  12712-2 0  9990
2 66912  51.6324  50.9301 0003812 329.0552  31.0213 15.53128826  4460
2025-284A               
1 66913U 25284A   25365.05037874  .00009355  00000+0  77971-3 0  9996
2 66913  80.4033 106.9667 0016554 221.3672 138.6292 14.98433865  3885
2025-284B               
1 66914U 25284B   25350.28554881  .00008068  00000+0  38445-3 0  9991
2 66914  80.4045 125.2713 0008179 234.9626 125.0834 15.18985981  1668
HULIANWANG DIGUI-105    
1 66915U 25285A   25365.22227608  .00000118  00000+0  18377-3 0  9997
2 66915  50.0114  42.1096 0000235 323.0294  37.0593 13.99095272  3507
HULIANWANG DIGUI-106    
1 66916U 25285B   25364.14778359  .00000112  00000+0  17429-3 0  9993
2 66916  50.0078  46.4180 0002386 333.8091  26.2691 14.01044551  3351
HULIANWANG DIGUI-107    
1 66917U 25285C   25365.28861302 -.00000036  00000+0  78335-4 0  9991
2 66917  50.0040  41.7817 0000383 198.8016 161.2873 13.98835046  3519
HULIANWANG DIGUI-108    
1 66918U 25285D   25365.28719492 -.00000053  00000+0  65308-4 0  9999
2 66918  50.0060  41.7769 0000310  41.9404 318.1522 13.99919106  3512
HULIANWANG DIGUI-109    
1 66919U 25285E   25365.21344875 -.00000026  00000+0  84397-4 0  9991
2 66919  50.0104  42.0465 0000385 106.2286 253.8659 13.99421685  3509
HULIANWANG DIGUI-110    
1 66920U 25285F   25365.28351888 -.00000160  00000+0 -68798-5 0  9990
2 66920  50.0121  41.7766 0000336 225.8590 134.2285 13.99738585  3510
HULIANWANG DIGUI-111    
1 66921U 25285G   25365.28232528 -.00000139  00000+0  74051-5 0  9994
2 66921  50.0133  41.7716 0000241 115.3722 244.7206 13.99832437  3515
HULIANWANG DIGUI-112    
1 66922U 25285H   25365.28079111  .00000095  00000+0  16616-3 0  9993
2 66922  50.0110  41.7497 0000497 185.0607 175.0290 13.99705332  3518
